{"type":"FeatureCollection","features":[{"type":"Feature","properties":{"n":"Catalunya"},"geometry":{"type":"MultiPolygon","coordinates":[[[[3.3322,42.3192],[3.3325,42.32],[3.3322,42.3192],[3.3322,42.3192]]],[[[0.1591,40.7503],[0.1741,40.7419],[0.1756,40.7536],[0.1778,40.7548],[0.1899,40.7507],[0.1955,40.7579],[0.2032,40.7596],[0.2121,40.7676],[0.226,40.7664],[0.2347,40.7762],[0.2331,40.7794],[0.2341,40.787],[0.245,40.792],[0.2506,40.7985],[0.2588,40.8003],[0.2658,40.8134],[0.2783,40.8213],[0.26,40.8384],[0.2536,40.8543],[0.2534,40.8697],[0.2551,40.874],[0.2386,40.8846],[0.2461,40.8893],[0.2512,40.9032],[0.2485,40.9094],[0.2517,40.9121],[0.2543,40.9203],[0.2603,40.9279],[0.2667,40.9284],[0.2735,40.9352],[0.2726,40.9457],[0.2813,40.9523],[0.2848,40.9588],[0.2842,40.9643],[0.2929,40.9712],[0.2896,40.9739],[0.282,40.9728],[0.2811,40.9867],[0.2684,40.9982],[0.2694,41.0022],[0.2744,41.0046],[0.2745,41.0065],[0.2619,41.0107],[0.2588,41.0141],[0.2619,41.0192],[0.2768,41.0178],[0.2794,41.0194],[0.2784,41.0216],[0.2721,41.0256],[0.2653,41.0254],[0.2589,41.0286],[0.2523,41.0328],[0.2459,41.0412],[0.2434,41.0404],[0.2445,41.0365],[0.2419,41.0344],[0.2322,41.0348],[0.2299,41.0398],[0.2343,41.0442],[0.2324,41.0471],[0.2267,41.0465],[0.2215,41.0417],[0.2181,41.0435],[0.2174,41.0473],[0.2291,41.0521],[0.2301,41.0564],[0.2189,41.0613],[0.2174,41.0666],[0.2205,41.0714],[0.2163,41.0774],[0.2194,41.0796],[0.2193,41.0831],[0.2006,41.0849],[0.2005,41.1022],[0.2084,41.1164],[0.2009,41.1259],[0.2194,41.132],[0.2193,41.1342],[0.2126,41.1364],[0.214,41.1372],[0.2378,41.1299],[0.2482,41.13],[0.256,41.1428],[0.253,41.1499],[0.2722,41.1486],[0.2835,41.1554],[0.3018,41.161],[0.3031,41.1644],[0.3004,41.1671],[0.3049,41.1719],[0.3062,41.1856],[0.3212,41.224],[0.3311,41.2224],[0.3408,41.231],[0.3492,41.2269],[0.3612,41.2253],[0.3645,41.2282],[0.3642,41.2385],[0.3798,41.2374],[0.3736,41.2483],[0.3777,41.2527],[0.3769,41.2612],[0.3799,41.271],[0.3853,41.2788],[0.3696,41.2961],[0.3655,41.3037],[0.3702,41.3121],[0.3679,41.3191],[0.3512,41.3245],[0.3486,41.3279],[0.3503,41.3318],[0.3674,41.3436],[0.374,41.3525],[0.3582,41.372],[0.32,41.3942],[0.3434,41.415],[0.3484,41.4267],[0.3483,41.4388],[0.3565,41.4513],[0.3551,41.4549],[0.3451,41.4621],[0.3428,41.484],[0.3478,41.4879],[0.3719,41.4847],[0.3862,41.4864],[0.3963,41.4903],[0.4191,41.5178],[0.4269,41.5224],[0.4332,41.5317],[0.4459,41.5431],[0.4395,41.5556],[0.4301,41.5651],[0.433,41.569],[0.4302,41.5773],[0.4313,41.581],[0.436,41.5852],[0.4288,41.6018],[0.4022,41.5926],[0.3498,41.5996],[0.3468,41.6224],[0.3574,41.6321],[0.3497,41.6365],[0.333,41.6597],[0.3263,41.6626],[0.3258,41.6734],[0.3283,41.6815],[0.3415,41.6961],[0.3679,41.7135],[0.3689,41.7241],[0.3729,41.7238],[0.3852,41.7396],[0.3952,41.7329],[0.3991,41.7558],[0.4069,41.7587],[0.438,41.7613],[0.4481,41.7647],[0.4644,41.7633],[0.4694,41.7652],[0.4745,41.7886],[0.4885,41.805],[0.4952,41.8045],[0.4989,41.8072],[0.5019,41.8144],[0.5155,41.8221],[0.5441,41.8216],[0.5522,41.8344],[0.5532,41.8394],[0.5513,41.8406],[0.5514,41.8435],[0.5554,41.8529],[0.5793,41.8509],[0.5819,41.8573],[0.5799,41.8632],[0.6034,41.8691],[0.6076,41.8724],[0.6079,41.8785],[0.5921,41.8848],[0.6008,41.908],[0.595,41.9176],[0.6049,41.9189],[0.6055,41.9204],[0.6016,41.9228],[0.5626,41.9327],[0.5614,41.9379],[0.5782,41.9576],[0.5859,41.9619],[0.587,41.9665],[0.5931,41.9687],[0.6042,41.9619],[0.6116,41.9713],[0.6112,41.978],[0.6167,41.9822],[0.6169,41.987],[0.6215,41.99],[0.6389,41.9947],[0.6427,41.9833],[0.6466,41.9963],[0.6583,42.0036],[0.6615,42.014],[0.6573,42.0148],[0.6525,42.0232],[0.6527,42.0267],[0.6573,42.0312],[0.6569,42.0401],[0.6664,42.0415],[0.6707,42.0462],[0.6687,42.0548],[0.6712,42.063],[0.6803,42.0761],[0.685,42.0924],[0.6962,42.0996],[0.7023,42.1166],[0.7021,42.1216],[0.6967,42.1287],[0.6956,42.1515],[0.7131,42.163],[0.6979,42.1728],[0.7021,42.1873],[0.709,42.1967],[0.7079,42.2041],[0.7135,42.2125],[0.7143,42.224],[0.7247,42.2365],[0.7256,42.2432],[0.7343,42.2509],[0.7394,42.2696],[0.7378,42.2824],[0.7437,42.286],[0.7444,42.3012],[0.7556,42.3091],[0.7547,42.3139],[0.7634,42.3223],[0.7435,42.3279],[0.7416,42.3362],[0.7535,42.346],[0.7644,42.3474],[0.7697,42.3513],[0.7614,42.3576],[0.7465,42.3564],[0.723,42.3654],[0.7224,42.3687],[0.7337,42.3716],[0.7348,42.3762],[0.7424,42.3789],[0.7454,42.3847],[0.7377,42.3983],[0.7265,42.4048],[0.728,42.4078],[0.7345,42.4083],[0.7345,42.415],[0.7279,42.4246],[0.7142,42.4336],[0.7071,42.4488],[0.7088,42.459],[0.6945,42.4762],[0.6901,42.4865],[0.6976,42.4858],[0.7007,42.4954],[0.7137,42.4875],[0.7353,42.5041],[0.7387,42.5049],[0.7214,42.516],[0.7236,42.5206],[0.7211,42.5244],[0.7291,42.5362],[0.7354,42.5409],[0.7391,42.5375],[0.7501,42.5353],[0.7413,42.5441],[0.7493,42.5533],[0.7513,42.5614],[0.7577,42.5695],[0.7608,42.5922],[0.7672,42.611],[0.7451,42.6151],[0.7371,42.6129],[0.7078,42.621],[0.6992,42.6284],[0.7014,42.6403],[0.6955,42.6521],[0.6956,42.6579],[0.6845,42.6596],[0.6738,42.6771],[0.66,42.6888],[0.6622,42.6914],[0.6761,42.6913],[0.674,42.6989],[0.6821,42.709],[0.6738,42.7174],[0.6796,42.7237],[0.6704,42.7313],[0.6632,42.7433],[0.6633,42.7498],[0.6605,42.7517],[0.6473,42.7514],[0.6393,42.7549],[0.6457,42.7557],[0.65,42.7602],[0.6504,42.765],[0.6622,42.77],[0.6661,42.7741],[0.6538,42.7773],[0.6451,42.7831],[0.6506,42.7855],[0.6605,42.7984],[0.6691,42.8017],[0.6705,42.804],[0.665,42.8138],[0.6697,42.8243],[0.6615,42.8299],[0.6594,42.8388],[0.6778,42.8476],[0.6782,42.8548],[0.6916,42.8551],[0.7096,42.8613],[0.7345,42.8544],[0.7367,42.8488],[0.7612,42.8428],[0.7771,42.8362],[0.7897,42.8365],[0.8015,42.8406],[0.8157,42.8371],[0.8338,42.8284],[0.8539,42.8268],[0.8688,42.8171],[0.8861,42.8126],[0.9261,42.7895],[0.9331,42.7896],[0.9393,42.7967],[0.9602,42.8059],[0.9776,42.7949],[0.9774,42.7912],[0.9832,42.7869],[0.9945,42.787],[1.0052,42.7909],[1.0172,42.7871],[1.0372,42.787],[1.0435,42.7852],[1.0428,42.7825],[1.0449,42.781],[1.0741,42.7837],[1.0778,42.7883],[1.0919,42.7761],[1.1094,42.77],[1.1288,42.7547],[1.132,42.7508],[1.1304,42.7409],[1.1344,42.7343],[1.1339,42.7279],[1.1703,42.708],[1.1881,42.7163],[1.2156,42.7201],[1.2271,42.7262],[1.2473,42.7225],[1.2533,42.7148],[1.2654,42.7155],[1.2689,42.7183],[1.2748,42.7187],[1.2791,42.7142],[1.2971,42.7193],[1.3109,42.7182],[1.3323,42.7248],[1.3399,42.7189],[1.3573,42.7195],[1.3578,42.7152],[1.3524,42.7108],[1.3511,42.7038],[1.3525,42.701],[1.3669,42.6951],[1.3772,42.6946],[1.3892,42.6871],[1.3878,42.669],[1.3964,42.6683],[1.4032,42.6592],[1.4138,42.6552],[1.4206,42.6249],[1.4279,42.6202],[1.4306,42.6115],[1.4367,42.6037],[1.4431,42.6026],[1.4401,42.5943],[1.4276,42.5868],[1.4266,42.583],[1.432,42.5755],[1.4434,42.5719],[1.4445,42.5686],[1.4395,42.5636],[1.4241,42.5568],[1.4128,42.5364],[1.4388,42.5435],[1.4526,42.538],[1.4553,42.5284],[1.468,42.5099],[1.4433,42.4952],[1.4257,42.4931],[1.4198,42.4839],[1.4333,42.4819],[1.441,42.4755],[1.4407,42.4662],[1.4475,42.4601],[1.4416,42.4555],[1.4462,42.4481],[1.4468,42.4438],[1.4436,42.443],[1.4553,42.4361],[1.4987,42.4331],[1.5116,42.4292],[1.5395,42.433],[1.5507,42.4324],[1.5532,42.4343],[1.5529,42.4434],[1.5598,42.449],[1.5562,42.4541],[1.5616,42.4582],[1.567,42.459],[1.58,42.4493],[1.586,42.4606],[1.5974,42.4663],[1.631,42.4647],[1.6382,42.4672],[1.6571,42.4683],[1.6625,42.4746],[1.662,42.4925],[1.6696,42.5039],[1.6799,42.4946],[1.6903,42.4949],[1.7036,42.4899],[1.7115,42.4924],[1.7257,42.5047],[1.7305,42.4926],[1.7462,42.4955],[1.7628,42.4868],[1.7918,42.4855],[1.8046,42.4901],[1.8166,42.4833],[1.8242,42.4857],[1.8418,42.4774],[1.8491,42.4677],[1.8555,42.4637],[1.8595,42.4626],[1.8647,42.4663],[1.881,42.4599],[1.8846,42.45],[1.8912,42.4477],[1.8956,42.4476],[1.8982,42.45],[1.9162,42.4463],[1.9327,42.4546],[1.937,42.4537],[1.9429,42.4445],[1.9413,42.4301],[1.9586,42.4241],[1.9552,42.4117],[1.9597,42.4052],[1.9602,42.3929],[1.9657,42.3807],[1.9723,42.3734],[1.9792,42.3716],[1.9865,42.3618],[2.0156,42.3474],[2.0234,42.3556],[2.0597,42.3583],[2.0724,42.3649],[2.0805,42.3647],[2.085,42.3625],[2.0904,42.374],[2.1161,42.3832],[2.1148,42.3945],[2.1219,42.3999],[2.1256,42.4098],[2.1489,42.4209],[2.1693,42.4235],[2.1791,42.4192],[2.2015,42.4164],[2.2243,42.4259],[2.2462,42.4289],[2.2522,42.4366],[2.2571,42.4386],[2.2953,42.423],[2.3008,42.424],[2.3064,42.4286],[2.3122,42.4284],[2.3185,42.4251],[2.3193,42.4217],[2.3244,42.4177],[2.332,42.4158],[2.344,42.4169],[2.3459,42.4154],[2.3454,42.4102],[2.3482,42.4074],[2.3696,42.4009],[2.3855,42.4004],[2.407,42.3928],[2.4333,42.3942],[2.4353,42.3852],[2.4339,42.377],[2.4456,42.3697],[2.4536,42.3697],[2.4574,42.3633],[2.4663,42.3606],[2.4808,42.3412],[2.5008,42.3429],[2.5267,42.3334],[2.5421,42.3342],[2.5523,42.3433],[2.554,42.3532],[2.5614,42.3559],[2.5619,42.3611],[2.5665,42.3581],[2.5854,42.3572],[2.6184,42.3455],[2.6331,42.3458],[2.6697,42.3405],[2.6748,42.3422],[2.6748,42.357],[2.6609,42.366],[2.6611,42.3773],[2.6514,42.3858],[2.6519,42.3889],[2.6656,42.3857],[2.6712,42.3881],[2.6734,42.3994],[2.672,42.4034],[2.6803,42.4066],[2.6945,42.4076],[2.7171,42.4215],[2.7527,42.4263],[2.7704,42.4119],[2.785,42.4173],[2.8001,42.4185],[2.8052,42.432],[2.8184,42.4405],[2.8278,42.4399],[2.8334,42.448],[2.8327,42.4527],[2.8391,42.4594],[2.8567,42.4541],[2.8611,42.4549],[2.8644,42.4644],[2.8705,42.4674],[2.8822,42.4606],[2.8915,42.462],[2.905,42.4569],[2.9176,42.4563],[2.9246,42.4587],[2.9319,42.4742],[2.9465,42.481],[2.9571,42.4755],[2.9676,42.4656],[2.9794,42.4674],[2.9824,42.4718],[2.9888,42.474],[2.9999,42.4733],[3.0124,42.4669],[3.0318,42.4749],[3.0405,42.4735],[3.0486,42.4561],[3.0542,42.45],[3.0585,42.4457],[3.067,42.4426],[3.0694,42.4379],[3.0858,42.4256],[3.0988,42.4252],[3.1113,42.4353],[3.1215,42.4369],[3.1482,42.434],[3.175,42.435],[3.1623,42.4287],[3.1698,42.4249],[3.169,42.4187],[3.1707,42.4166],[3.1654,42.4136],[3.1655,42.411],[3.1563,42.407],[3.1575,42.4039],[3.1623,42.4045],[3.1664,42.4014],[3.1537,42.3929],[3.1593,42.3892],[3.1631,42.3917],[3.167,42.3896],[3.1633,42.3848],[3.1596,42.3847],[3.1555,42.3788],[3.1586,42.3765],[3.1598,42.3725],[3.1626,42.3748],[3.1651,42.3743],[3.1675,42.3675],[3.1634,42.3649],[3.1633,42.3602],[3.1775,42.3531],[3.1829,42.3537],[3.1842,42.3506],[3.1879,42.3518],[3.1858,42.3436],[3.1961,42.3353],[3.2031,42.3373],[3.2026,42.3411],[3.2003,42.3407],[3.2034,42.3471],[3.2101,42.3441],[3.2155,42.3495],[3.2179,42.3503],[3.2225,42.3483],[3.2287,42.3515],[3.2382,42.3489],[3.2369,42.3435],[3.2389,42.3395],[3.2418,42.3359],[3.2465,42.3364],[3.2489,42.3322],[3.2506,42.3358],[3.2533,42.3336],[3.2562,42.3353],[3.2605,42.3335],[3.2623,42.3348],[3.2603,42.3367],[3.2614,42.3401],[3.2677,42.3404],[3.2803,42.3362],[3.2791,42.3324],[3.2871,42.3328],[3.2857,42.3317],[3.2864,42.3273],[3.2891,42.3294],[3.2987,42.3284],[3.3012,42.3262],[3.3051,42.3282],[3.308,42.3266],[3.3074,42.3225],[3.3101,42.3208],[3.3118,42.3247],[3.3196,42.3209],[3.3207,42.3222],[3.3182,42.3244],[3.3241,42.3223],[3.3199,42.3167],[3.3173,42.3167],[3.3182,42.3145],[3.3128,42.3168],[3.3127,42.313],[3.3082,42.3133],[3.3076,42.3107],[3.3053,42.3125],[3.3031,42.3114],[3.3025,42.308],[3.2991,42.3067],[3.3003,42.3045],[3.2907,42.3064],[3.2896,42.303],[3.293,42.3017],[3.289,42.2974],[3.2916,42.2949],[3.2874,42.2924],[3.2925,42.2916],[3.2961,42.2951],[3.2993,42.2846],[3.2973,42.285],[3.2918,42.2811],[3.2912,42.2828],[3.2876,42.2825],[3.2874,42.285],[3.2811,42.2884],[3.2766,42.2871],[3.2758,42.2838],[3.2808,42.2804],[3.2779,42.2788],[3.2838,42.2738],[3.2834,42.2705],[3.2873,42.271],[3.2878,42.2659],[3.2812,42.2577],[3.2816,42.2539],[3.2667,42.2537],[3.2614,42.251],[3.2551,42.2517],[3.2563,42.2489],[3.2531,42.2466],[3.2539,42.2445],[3.2666,42.2429],[3.2626,42.2372],[3.2492,42.2408],[3.2436,42.2498],[3.2393,42.2507],[3.2376,42.2475],[3.2295,42.2514],[3.2273,42.2488],[3.2306,42.2449],[3.2267,42.2431],[3.2289,42.2404],[3.2259,42.2398],[3.2264,42.2377],[3.2206,42.2365],[3.2179,42.2324],[3.2125,42.2368],[3.2073,42.2374],[3.2076,42.2402],[3.203,42.2399],[3.1977,42.2427],[3.1987,42.2442],[3.1965,42.247],[3.1822,42.2455],[3.1815,42.2506],[3.1778,42.2511],[3.1787,42.2527],[3.1752,42.2551],[3.178,42.2595],[3.1757,42.2609],[3.1715,42.2599],[3.174,42.2612],[3.1736,42.2631],[3.1662,42.2646],[3.1517,42.26],[3.151,42.2574],[3.1499,42.2586],[3.1472,42.2573],[3.1361,42.2487],[3.1364,42.2457],[3.1216,42.2309],[3.1126,42.2093],[3.111,42.1889],[3.1142,42.1549],[3.1225,42.1313],[3.1257,42.1271],[3.1313,42.1289],[3.1365,42.1261],[3.1386,42.1159],[3.1458,42.1167],[3.145,42.1189],[3.1498,42.1211],[3.1646,42.1132],[3.1713,42.1144],[3.1765,42.1108],[3.1746,42.1073],[3.1704,42.1077],[3.1697,42.1054],[3.1744,42.1027],[3.1817,42.1053],[3.1844,42.0993],[3.1884,42.0974],[3.1951,42.0836],[3.1976,42.085],[3.1983,42.0829],[3.202,42.0822],[3.1986,42.08],[3.1988,42.0776],[3.2121,42.0687],[3.2092,42.0658],[3.2095,42.0636],[3.2111,42.0614],[3.2145,42.0611],[3.2124,42.0594],[3.2121,42.0541],[3.2068,42.0507],[3.2064,42.0535],[3.2038,42.0508],[3.2015,42.0517],[3.1971,42.0448],[3.1943,42.029],[3.1989,41.9986],[3.211,41.9772],[3.211,41.9739],[3.2212,41.9743],[3.2311,41.9692],[3.2318,41.9659],[3.228,41.9635],[3.2314,41.9601],[3.2336,41.962],[3.2336,41.9586],[3.2298,41.9549],[3.2335,41.9504],[3.2177,41.9422],[3.2145,41.9363],[3.2167,41.9341],[3.2205,41.9348],[3.2156,41.9294],[3.2186,41.9272],[3.218,41.9234],[3.22,41.9222],[3.2162,41.9215],[3.2163,41.9183],[3.2081,41.9168],[3.212,41.9092],[3.2079,41.9079],[3.21,41.9049],[3.2094,41.9021],[3.2054,41.9001],[3.2027,41.8916],[3.1945,41.8934],[3.1904,41.8881],[3.1828,41.8868],[3.1832,41.8817],[3.1792,41.8795],[3.1813,41.8765],[3.1776,41.8723],[3.1772,41.8695],[3.1791,41.8677],[3.159,41.8596],[3.1545,41.8624],[3.1508,41.8613],[3.1501,41.8586],[3.1439,41.8577],[3.1428,41.8558],[3.1453,41.8535],[3.1449,41.8497],[3.138,41.8489],[3.1358,41.8441],[3.1309,41.8417],[3.1201,41.8416],[3.1253,41.843],[3.1238,41.8449],[3.1256,41.8466],[3.1221,41.8482],[3.1138,41.8486],[3.1023,41.845],[3.0937,41.8376],[3.093,41.8323],[3.0878,41.8316],[3.0815,41.824],[3.0715,41.8191],[3.0652,41.804],[3.0666,41.8007],[3.0614,41.7983],[3.0615,41.7951],[3.0569,41.7869],[3.0524,41.7906],[3.0459,41.7883],[3.0482,41.782],[3.0447,41.7814],[3.0437,41.7786],[3.0343,41.777],[3.0376,41.7797],[3.0309,41.7797],[3.0316,41.7715],[3.0281,41.7714],[3.0255,41.7739],[3.0105,41.7719],[3.0024,41.7672],[3.0028,41.7652],[2.9811,41.7596],[2.982,41.7574],[2.9794,41.7585],[2.9714,41.7532],[2.9652,41.7469],[2.9655,41.7452],[2.9637,41.7455],[2.9581,41.7405],[2.958,41.7383],[2.9603,41.7376],[2.9584,41.7357],[2.9539,41.7363],[2.9535,41.7314],[2.9476,41.7304],[2.9462,41.7258],[2.9419,41.7254],[2.9351,41.7206],[2.9351,41.7153],[2.9195,41.7128],[2.912,41.7073],[2.9033,41.7102],[2.8997,41.7077],[2.9003,41.7056],[2.8874,41.7015],[2.8812,41.7039],[2.8794,41.7015],[2.8737,41.7018],[2.866,41.6987],[2.8512,41.6991],[2.8423,41.6936],[2.8338,41.6942],[2.8295,41.6911],[2.8274,41.6918],[2.8269,41.69],[2.8256,41.6911],[2.8197,41.689],[2.816,41.6821],[2.8037,41.6763],[2.8038,41.6732],[2.7993,41.6715],[2.7943,41.6738],[2.792,41.6721],[2.7925,41.6704],[2.789,41.6701],[2.7767,41.6499],[2.7462,41.6423],[2.7192,41.6295],[2.6318,41.6037],[2.572,41.5823],[2.5606,41.575],[2.5491,41.5768],[2.5146,41.5622],[2.5058,41.5554],[2.4681,41.5458],[2.45,41.5343],[2.4483,41.5322],[2.4493,41.5298],[2.4444,41.5261],[2.4442,41.5278],[2.4394,41.5283],[2.3993,41.5041],[2.376,41.4937],[2.3706,41.4888],[2.3671,41.4874],[2.3635,41.489],[2.3295,41.481],[2.3123,41.4736],[2.3043,41.4748],[2.27,41.4606],[2.2507,41.4459],[2.2428,41.4312],[2.2345,41.4222],[2.2331,41.4146],[2.2297,41.4092],[2.222,41.4036],[2.2215,41.4053],[2.218,41.4043],[2.2145,41.4006],[2.2155,41.3986],[2.2126,41.3986],[2.211,41.395],[2.2028,41.3905],[2.2036,41.3874],[2.2007,41.3838],[2.1928,41.379],[2.1897,41.372],[2.1919,41.3699],[2.1854,41.3577],[2.1872,41.3631],[2.1849,41.3653],[2.184,41.374],[2.187,41.3775],[2.1852,41.3796],[2.1835,41.3743],[2.1802,41.3762],[2.1785,41.3747],[2.1821,41.3704],[2.1775,41.3717],[2.1766,41.3675],[2.1807,41.3658],[2.1793,41.3636],[2.1762,41.365],[2.1743,41.363],[2.1767,41.3606],[2.1754,41.3586],[2.1705,41.3597],[2.1731,41.3565],[2.1669,41.3471],[2.163,41.3483],[2.1533,41.3427],[2.1507,41.3442],[2.1496,41.3367],[2.1463,41.3349],[2.1464,41.3312],[2.1482,41.3302],[2.1571,41.3423],[2.1652,41.3414],[2.1592,41.3272],[2.1544,41.3277],[2.152,41.3242],[2.1566,41.3203],[2.1536,41.3168],[2.155,41.3152],[2.143,41.3048],[2.1451,41.3018],[2.1434,41.299],[2.1529,41.2964],[2.1666,41.3097],[2.1654,41.3178],[2.1675,41.3119],[2.1667,41.3089],[2.1551,41.2975],[2.1517,41.2955],[2.1442,41.2957],[2.1381,41.2995],[2.1379,41.2931],[2.1359,41.2975],[2.1295,41.2974],[2.0747,41.2765],[2.0238,41.2661],[1.9446,41.2635],[1.9326,41.2617],[1.9215,41.2557],[1.9242,41.2594],[1.9065,41.255],[1.9001,41.2485],[1.8697,41.2429],[1.8659,41.2365],[1.865,41.2389],[1.8539,41.2346],[1.8295,41.2366],[1.8241,41.232],[1.8204,41.2357],[1.8149,41.236],[1.7966,41.2304],[1.7885,41.2237],[1.7769,41.2236],[1.7619,41.2187],[1.7428,41.2182],[1.7376,41.2145],[1.7381,41.2108],[1.73,41.2059],[1.7307,41.2077],[1.7274,41.2111],[1.7184,41.2098],[1.7149,41.211],[1.7075,41.2075],[1.6982,41.208],[1.6706,41.1978],[1.6703,41.1961],[1.6679,41.1974],[1.6666,41.1957],[1.664,41.1968],[1.6629,41.1952],[1.6605,41.1962],[1.6554,41.194],[1.6472,41.1928],[1.6458,41.1949],[1.6421,41.193],[1.6408,41.1942],[1.6134,41.1901],[1.6085,41.1884],[1.6075,41.1837],[1.6033,41.1886],[1.5895,41.1884],[1.5425,41.1828],[1.5311,41.18],[1.5273,41.1767],[1.5214,41.1788],[1.4958,41.1732],[1.4852,41.1663],[1.4793,41.1685],[1.4666,41.1661],[1.4079,41.141],[1.4047,41.1383],[1.405,41.1361],[1.4015,41.1326],[1.4012,41.1347],[1.3941,41.1318],[1.3839,41.1344],[1.3766,41.1336],[1.3525,41.1271],[1.3473,41.1279],[1.344,41.1248],[1.3361,41.1286],[1.3247,41.1277],[1.321,41.1295],[1.2951,41.1269],[1.278,41.1199],[1.2704,41.1132],[1.2642,41.1142],[1.2559,41.1119],[1.2524,41.1064],[1.2511,41.1079],[1.2485,41.1054],[1.2463,41.1005],[1.2323,41.0949],[1.2265,41.0875],[1.2135,41.0787],[1.2247,41.0868],[1.2235,41.0906],[1.2337,41.0998],[1.2425,41.1034],[1.2427,41.1049],[1.238,41.1061],[1.2375,41.1038],[1.2301,41.101],[1.2286,41.105],[1.2269,41.1053],[1.2276,41.1003],[1.2266,41.0986],[1.2229,41.0962],[1.2253,41.0984],[1.2237,41.1018],[1.2184,41.1023],[1.214,41.1],[1.2192,41.0924],[1.2161,41.0902],[1.2082,41.097],[1.2058,41.0962],[1.212,41.0875],[1.2142,41.0871],[1.2081,41.0876],[1.1983,41.0937],[1.1996,41.0882],[1.206,41.0836],[1.1996,41.0878],[1.1969,41.0906],[1.192,41.088],[1.1914,41.0861],[1.1959,41.0829],[1.1921,41.0851],[1.1866,41.0811],[1.1797,41.0706],[1.1811,41.064],[1.1705,41.0547],[1.1672,41.0566],[1.1608,41.0558],[1.1619,41.0588],[1.1578,41.064],[1.1476,41.0654],[1.1486,41.0679],[1.1435,41.072],[1.1303,41.073],[1.1284,41.0749],[1.1177,41.0736],[1.114,41.0724],[1.1141,41.0706],[1.1118,41.0718],[1.0845,41.0638],[1.0683,41.0656],[1.0606,41.06],[1.0608,41.0625],[1.0463,41.0631],[1.039,41.0579],[1.0155,41.051],[1.0038,41.0433],[0.9859,41.0405],[0.9635,41.0263],[0.9424,41.0079],[0.9309,40.9884],[0.9224,40.9864],[0.9214,40.9888],[0.9153,40.9874],[0.8807,40.9598],[0.8753,40.952],[0.8621,40.9468],[0.8573,40.9353],[0.852,40.9313],[0.8508,40.9262],[0.8496,40.9281],[0.8376,40.9192],[0.8367,40.9148],[0.8272,40.9083],[0.8268,40.9033],[0.8169,40.892],[0.8075,40.8871],[0.8029,40.8774],[0.8016,40.8789],[0.7954,40.8745],[0.7958,40.8714],[0.7918,40.8664],[0.7703,40.8579],[0.7626,40.8465],[0.7522,40.8463],[0.7491,40.8434],[0.7493,40.8409],[0.7447,40.838],[0.7413,40.8234],[0.7351,40.8236],[0.7321,40.8185],[0.7133,40.812],[0.7107,40.8075],[0.71,40.811],[0.7068,40.8101],[0.7,40.8012],[0.7069,40.7889],[0.7228,40.7785],[0.7291,40.7702],[0.7368,40.7669],[0.7391,40.7684],[0.7407,40.7661],[0.7621,40.7619],[0.7695,40.7624],[0.7771,40.7688],[0.7804,40.7684],[0.781,40.7701],[0.7829,40.7686],[0.7843,40.7708],[0.7827,40.7731],[0.7678,40.7787],[0.7357,40.7881],[0.7343,40.7858],[0.7324,40.7891],[0.7309,40.7866],[0.7282,40.7888],[0.7252,40.7881],[0.7298,40.7911],[0.746,40.7938],[0.7683,40.7914],[0.7785,40.7843],[0.7961,40.7634],[0.8268,40.7349],[0.8355,40.7312],[0.8445,40.7307],[0.8516,40.7349],[0.8615,40.7372],[0.8663,40.7305],[0.8718,40.7305],[0.8742,40.7194],[0.8651,40.6954],[0.8549,40.6849],[0.839,40.6756],[0.7536,40.6382],[0.7229,40.6076],[0.6972,40.577],[0.6825,40.5662],[0.6641,40.5583],[0.6303,40.551],[0.6157,40.5523],[0.6042,40.5577],[0.5963,40.5657],[0.5916,40.5784],[0.5926,40.5803],[0.6022,40.5748],[0.6114,40.5781],[0.6138,40.5761],[0.6179,40.5858],[0.6301,40.5815],[0.6392,40.582],[0.6385,40.5799],[0.6357,40.5813],[0.6348,40.5768],[0.6402,40.575],[0.6429,40.5796],[0.6435,40.5769],[0.6457,40.5767],[0.6454,40.5793],[0.6476,40.5788],[0.652,40.5831],[0.6463,40.5841],[0.6451,40.5824],[0.6441,40.5834],[0.6422,40.5817],[0.6415,40.5826],[0.6498,40.5852],[0.6536,40.5844],[0.6602,40.5914],[0.6724,40.5929],[0.6843,40.5892],[0.6973,40.5889],[0.7077,40.591],[0.7447,40.6368],[0.7341,40.6393],[0.714,40.639],[0.7077,40.6353],[0.7036,40.6383],[0.6937,40.6373],[0.6655,40.6277],[0.6657,40.6254],[0.6546,40.6267],[0.6518,40.6244],[0.6438,40.6232],[0.6088,40.6232],[0.6085,40.6166],[0.6041,40.6163],[0.6069,40.618],[0.6066,40.6218],[0.6028,40.622],[0.6025,40.6162],[0.6001,40.6146],[0.6,40.6171],[0.5986,40.6152],[0.5982,40.6189],[0.5961,40.6176],[0.5959,40.6147],[0.6045,40.6092],[0.5957,40.6139],[0.5906,40.6129],[0.549,40.575],[0.5521,40.5729],[0.5504,40.5717],[0.5513,40.5702],[0.5564,40.5715],[0.5513,40.5697],[0.547,40.5728],[0.5382,40.5676],[0.531,40.5529],[0.5342,40.5519],[0.5299,40.5508],[0.5226,40.5431],[0.5147,40.5229],[0.4886,40.529],[0.4387,40.5464],[0.4361,40.5498],[0.4344,40.567],[0.4421,40.5783],[0.4328,40.5793],[0.4056,40.5948],[0.4016,40.6029],[0.3871,40.6066],[0.364,40.6059],[0.3368,40.6088],[0.3151,40.6141],[0.2995,40.6248],[0.2927,40.6232],[0.2819,40.628],[0.2666,40.6436],[0.2692,40.6486],[0.2678,40.6585],[0.2755,40.6702],[0.2834,40.6733],[0.2913,40.6838],[0.2916,40.6883],[0.2767,40.6952],[0.2686,40.7035],[0.2611,40.7057],[0.242,40.7002],[0.2361,40.7016],[0.2274,40.7149],[0.2246,40.7256],[0.2255,40.7328],[0.2142,40.7312],[0.1976,40.7245],[0.1909,40.7309],[0.1817,40.7281],[0.1703,40.7327],[0.1591,40.7503]],[[3.1789,42.2526],[3.1809,42.2523],[3.1806,42.2555],[3.1787,42.2551],[3.1789,42.2526]],[[2.7983,41.675],[2.7989,41.672],[2.8003,41.6736],[2.7983,41.675]],[[2.5589,41.5761],[2.5605,41.576],[2.5616,41.5791],[2.5598,41.579],[2.5589,41.5761]],[[2.4447,41.5278],[2.4482,41.5294],[2.4473,41.5315],[2.4439,41.5297],[2.4447,41.5278]],[[2.3122,41.4766],[2.3141,41.4753],[2.3141,41.4767],[2.3122,41.4766]],[[2.2419,41.4359],[2.2435,41.4342],[2.2436,41.436],[2.2419,41.4359]],[[2.2296,41.4134],[2.231,41.4116],[2.2314,41.4133],[2.2296,41.4134]],[[2.226,41.4133],[2.2293,41.4136],[2.2272,41.4151],[2.226,41.4133]],[[2.1519,41.3168],[2.1557,41.3193],[2.1556,41.3207],[2.1534,41.3212],[2.1511,41.3182],[2.1519,41.3168]],[[1.7343,41.2154],[1.7361,41.2134],[1.7359,41.2154],[1.7343,41.2154]],[[1.7332,41.2152],[1.7291,41.2125],[1.7331,41.2095],[1.735,41.2121],[1.7332,41.2152]],[[1.6518,41.1961],[1.6533,41.1947],[1.6533,41.1962],[1.6518,41.1961]],[[1.6498,41.1951],[1.6486,41.1934],[1.6501,41.1936],[1.6498,41.1951]],[[1.2437,41.1097],[1.2417,41.1069],[1.2466,41.1059],[1.2484,41.1078],[1.2437,41.1097]],[[1.0616,41.0628],[1.0633,41.0634],[1.0629,41.0648],[1.0608,41.0644],[1.0616,41.0628]],[[0.803,40.8827],[0.803,40.8807],[0.804,40.8818],[0.803,40.8827]],[[0.6334,40.5809],[0.6314,40.5795],[0.6331,40.579],[0.6334,40.5809]]],[[[3.1649,42.3623],[3.1649,42.3624],[3.1653,42.3618],[3.1649,42.3623]]],[[[3.2418,42.3398],[3.2423,42.3401],[3.2433,42.3393],[3.2418,42.3398]]],[[[3.2914,42.2798],[3.2916,42.2795],[3.2911,42.2796],[3.2914,42.2798]]],[[[2.1946,41.377],[2.1946,41.3773],[2.1946,41.3773],[2.1946,41.377]]],[[[2.1831,41.3652],[2.1757,41.3511],[2.17,41.3269],[2.1726,41.317],[2.1694,41.3264],[2.1722,41.3486],[2.1831,41.3652]]],[[[0.6424,40.5807],[0.6424,40.5808],[0.6427,40.5801],[0.6424,40.5807]]],[[[3.3084,42.2916],[3.3089,42.2925],[3.3097,42.2918],[3.3084,42.2916]]],[[[3.219,42.0481],[3.2259,42.0489],[3.2236,42.045],[3.2288,42.0418],[3.2252,42.0426],[3.219,42.0481]]],[[[3.2179,41.9377],[3.2177,41.9379],[3.2182,41.9382],[3.2179,41.9377]]],[[[3.1872,41.8626],[3.187,41.8628],[3.1874,41.863],[3.1872,41.8626]]],[[[3.1238,42.1357],[3.1237,42.1361],[3.1238,42.1357],[3.1238,42.1357]]],[[[2.9396,41.7202],[2.94,41.7207],[2.9403,41.7201],[2.9396,41.7202]]],[[[2.2059,41.3892],[2.2058,41.3893],[2.2062,41.3894],[2.2059,41.3892]]],[[[1.9566,42.4579],[1.9631,42.4787],[1.9705,42.4807],[1.9721,42.4845],[1.9756,42.4859],[1.9792,42.495],[1.9896,42.4937],[1.9984,42.4853],[1.9867,42.4755],[1.9868,42.4718],[1.9921,42.4643],[2.0105,42.4559],[2.0144,42.4518],[2.0128,42.4484],[1.9839,42.4467],[1.9598,42.4533],[1.9566,42.4579]]],[[[0.7677,40.7644],[0.7679,40.7644],[0.7679,40.7644],[0.7677,40.7644]]]]}}]}